[
    {
        "Altitude(m)": 572410.6377197144,
        "Argument of Periapsis(deg)": -0.015068773855314936,
        "Eccentricity": 0.0,
        "Inclination(deg)": 97.0,
        "Latitude(deg)": -23.811003455374134,
        "Longitude(deg)": -134.64198397784358,
        "Mean Anomaly(deg)": 203.76809551279172,
        "RAAN(deg)": 150.00396470241236,
        "Satellite Name": "Starlink Shell 3 1903",
        "Satellite Number": 1903,
        "Semi-Major Axis(m)": 6938478.169268562,
        "Time(s)": 380
    },
    {
        "Altitude(m)": 572631.2230272389,
        "Argument of Periapsis(deg)": -0.015465320535717962,
        "Eccentricity": 0.0,
        "Inclination(deg)": 97.0,
        "Latitude(deg)": -24.432587145852374,
        "Longitude(deg)": -134.7749231804207,
        "Mean Anomaly(deg)": 204.39357171049667,
        "RAAN(deg)": 150.00406903668636,
        "Satellite Name": "Starlink Shell 3 1903",
        "Satellite Number": 1903,
        "Semi-Major Axis(m)": 6938478.169268562,
        "Time(s)": 390
    },
    {
        "Altitude(m)": 572854.2327772988,
        "Argument of Periapsis(deg)": -0.015861867216120987,
        "Eccentricity": 0.0,
        "Inclination(deg)": 97.0,
        "Latitude(deg)": -25.05403755056379,
        "Longitude(deg)": -134.9087550119685,
        "Mean Anomaly(deg)": 205.0190479082017,
        "RAAN(deg)": 150.0041733709604,
        "Satellite Name": "Starlink Shell 3 1903",
        "Satellite Number": 1903,
        "Semi-Major Axis(m)": 6938478.169268562,
        "Time(s)": 400
    },
    {
        "Altitude(m)": 573079.5862584995,
        "Argument of Periapsis(deg)": -0.01625841389652401,
        "Eccentricity": 0.0,
        "Inclination(deg)": 97.0,
        "Latitude(deg)": -25.675351399125837,
        "Longitude(deg)": -135.04351404341486,
        "Mean Anomaly(deg)": 205.64452410590675,
        "RAAN(deg)": 150.0042777052344,
        "Satellite Name": "Starlink Shell 3 1903",
        "Satellite Number": 1903,
        "Semi-Major Axis(m)": 6938478.169268562,
        "Time(s)": 410
    },
    {
        "Altitude(m)": 573307.2015282905,
        "Argument of Periapsis(deg)": -0.016654960576927034,
        "Eccentricity": 0.0,
        "Inclination(deg)": 97.0,
        "Latitude(deg)": -26.296525385737965,
        "Longitude(deg)": -135.17923648131546,
        "Mean Anomaly(deg)": 206.27000030361185,
        "RAAN(deg)": 150.00438203950839,
        "Satellite Name": "Starlink Shell 3 1903",
        "Satellite Number": 1903,
        "Semi-Major Axis(m)": 6938478.169268562,
        "Time(s)": 420
    },
    {
        "Altitude(m)": 573536.9954504492,
        "Argument of Periapsis(deg)": -0.01705150725733006,
        "Eccentricity": 0.0,
        "Inclination(deg)": 97.0,
        "Latitude(deg)": -26.917556165986124,
        "Longitude(deg)": -135.31595972358474,
        "Mean Anomaly(deg)": 206.89547650131686,
        "RAAN(deg)": 150.00448637378238,
        "Satellite Name": "Starlink Shell 3 1903",
        "Satellite Number": 1903,
        "Semi-Major Axis(m)": 6938478.169268562,
        "Time(s)": 430
    },
    {
        "Altitude(m)": 573768.883733105,
        "Argument of Periapsis(deg)": -0.017448053937733084,
        "Eccentricity": 0.0,
        "Inclination(deg)": 97.0,
        "Latitude(deg)": -27.538440353421173,
        "Longitude(deg)": -135.4537219185524,
        "Mean Anomaly(deg)": 207.5209526990219,
        "RAAN(deg)": 150.0045907080564,
        "Satellite Name": "Starlink Shell 3 1903",
        "Satellite Number": 1903,
        "Semi-Major Axis(m)": 6938478.169268562,
        "Time(s)": 440
    },
    {
        "Altitude(m)": 574002.7809672783,
        "Argument of Periapsis(deg)": -0.017844600618136107,
        "Eccentricity": 0.0,
        "Inclination(deg)": 97.0,
        "Latitude(deg)": -28.159174515894303,
        "Longitude(deg)": -135.59256304045334,
        "Mean Anomaly(deg)": 208.146428896727,
        "RAAN(deg)": 150.0046950423304,
        "Satellite Name": "Starlink Shell 3 1903",
        "Satellite Number": 1903,
        "Semi-Major Axis(m)": 6938478.169268562,
        "Time(s)": 450
    },
    {
        "Altitude(m)": 574238.6006660067,
        "Argument of Periapsis(deg)": -0.018241147298539134,
        "Eccentricity": 0.0,
        "Inclination(deg)": 97.0,
        "Latitude(deg)": -28.77975517163679,
        "Longitude(deg)": -135.73252445585473,
        "Mean Anomaly(deg)": 208.771905094432,
        "RAAN(deg)": 150.0047993766044,
        "Satellite Name": "Starlink Shell 3 1903",
        "Satellite Number": 1903,
        "Semi-Major Axis(m)": 6938478.169268562,
        "Time(s)": 460
    },
    {
        "Altitude(m)": 574476.2553038449,
        "Argument of Periapsis(deg)": -0.018637693978942157,
        "Eccentricity": 0.0,
        "Inclination(deg)": 97.0,
        "Latitude(deg)": -29.40017878506695,
        "Longitude(deg)": -135.87364849416585,
        "Mean Anomaly(deg)": 209.39738129213708,
        "RAAN(deg)": 150.0049037108784,
        "Satellite Name": "Starlink Shell 3 1903",
        "Satellite Number": 1903,
        "Semi-Major Axis(m)": 6938478.169268562,
        "Time(s)": 470
    },
    {
        "Altitude(m)": 574715.65635696,
        "Argument of Periapsis(deg)": -0.019034240659345183,
        "Eccentricity": 0.0,
        "Inclination(deg)": 97.0,
        "Latitude(deg)": -30.020441762299857,
        "Longitude(deg)": -136.01597953539758,
        "Mean Anomaly(deg)": -149.97714251015793,
        "RAAN(deg)": 150.00500804515244,
        "Satellite Name": "Starlink Shell 3 1903",
        "Satellite Number": 1903,
        "Semi-Major Axis(m)": 6938478.169268562,
        "Time(s)": 480
    },
    {
        "Altitude(m)": 574956.7143435747,
        "Argument of Periapsis(deg)": -0.019430787339748207,
        "Eccentricity": 0.0,
        "Inclination(deg)": 97.0,
        "Latitude(deg)": -30.640540446348076,
        "Longitude(deg)": -136.15956358973918,
        "Mean Anomaly(deg)": -149.35166631245283,
        "RAAN(deg)": 150.00511237942644,
        "Satellite Name": "Starlink Shell 3 1903",
        "Satellite Number": 1903,
        "Semi-Major Axis(m)": 6938478.169268562,
        "Time(s)": 490
    },
    {
        "Altitude(m)": 575199.3388649125,
        "Argument of Periapsis(deg)": -0.019827334020151237,
        "Eccentricity": 0.0,
        "Inclination(deg)": 97.0,
        "Latitude(deg)": -31.26047111198562,
        "Longitude(deg)": -136.30444788216968,
        "Mean Anomaly(deg)": -148.7261901147478,
        "RAAN(deg)": 150.00521671370046,
        "Satellite Name": "Starlink Shell 3 1903",
        "Satellite Number": 1903,
        "Semi-Major Axis(m)": 6938478.169268562,
        "Time(s)": 500
    },
    {
        "Altitude(m)": 575443.4386465009,
        "Argument of Periapsis(deg)": -0.020223880700554257,
        "Eccentricity": 0.0,
        "Inclination(deg)": 97.0,
        "Latitude(deg)": -31.880229960252287,
        "Longitude(deg)": -136.45068195534571,
        "Mean Anomaly(deg)": -148.10071391704275,
        "RAAN(deg)": 150.00532104797446,
        "Satellite Name": "Starlink Shell 3 1903",
        "Satellite Number": 1903,
        "Semi-Major Axis(m)": 6938478.169268562,
        "Time(s)": 510
    },
    {
        "Altitude(m)": 575688.9215798959,
        "Argument of Periapsis(deg)": -0.020620427380957283,
        "Eccentricity": 0.0,
        "Inclination(deg)": 97.0,
        "Latitude(deg)": -32.499813112575666,
        "Longitude(deg)": -136.59831726542023,
        "Mean Anomaly(deg)": -147.47523771933774,
        "RAAN(deg)": 150.0054253822485,
        "Satellite Name": "Starlink Shell 3 1903",
        "Satellite Number": 1903,
        "Semi-Major Axis(m)": 6938478.169268562,
        "Time(s)": 520
    },
    {
        "Altitude(m)": 575935.6947647288,
        "Argument of Periapsis(deg)": -0.021016974061360306,
        "Eccentricity": 0.0,
        "Inclination(deg)": 97.0,
        "Latitude(deg)": -33.11921660448138,
        "Longitude(deg)": -136.74740678409827,
        "Mean Anomaly(deg)": -146.84976152163267,
        "RAAN(deg)": 150.00552971652246,
        "Satellite Name": "Starlink Shell 3 1903",
        "Satellite Number": 1903,
        "Semi-Major Axis(m)": 6938478.169268562,
        "Time(s)": 530
    },
    {
        "Altitude(m)": 576183.664551134,
        "Argument of Periapsis(deg)": -0.021413520741763333,
        "Eccentricity": 0.0,
        "Inclination(deg)": 97.0,
        "Latitude(deg)": -33.7384363788595,
        "Longitude(deg)": -136.898006120275,
        "Mean Anomaly(deg)": -146.22428532392766,
        "RAAN(deg)": 150.0056340507965,
        "Satellite Name": "Starlink Shell 3 1903",
        "Satellite Number": 1903,
        "Semi-Major Axis(m)": 6938478.169268562,
        "Time(s)": 540
    },
    {
        "Altitude(m)": 576432.736582479,
        "Argument of Periapsis(deg)": -0.021810067422166356,
        "Eccentricity": 0.0,
        "Inclination(deg)": 97.0,
        "Latitude(deg)": -34.35746827875893,
        "Longitude(deg)": -137.0501731360186,
        "Mean Anomaly(deg)": -145.59880912622262,
        "RAAN(deg)": 150.0057383850705,
        "Satellite Name": "Starlink Shell 3 1903",
        "Satellite Number": 1903,
        "Semi-Major Axis(m)": 6938478.169268562,
        "Time(s)": 550
    },
    {
        "Altitude(m)": 576682.8158383849,
        "Argument of Periapsis(deg)": -0.022206614102569383,
        "Eccentricity": 0.0,
        "Inclination(deg)": 97.0,
        "Latitude(deg)": -34.97630803967189,
        "Longitude(deg)": -137.20396757032566,
        "Mean Anomaly(deg)": -144.97333292851755,
        "RAAN(deg)": 150.0058427193445,
        "Satellite Name": "Starlink Shell 3 1903",
        "Satellite Number": 1903,
        "Semi-Major Axis(m)": 6938478.169268562,
        "Time(s)": 560
    }
]